{"type": "FeatureCollection", "features": [{"type": "Feature", "properties": {"norad_id": 28890, "name": "BEIJING 1", "group": "dmc", "lat": -67.86609793692531, "lon": -79.62503374226534, "alt_km": 696.4894856130913, "timestamp": "2025-12-19T18:58:41.258674+00:00", "meta": {"OBJECT_NAME": "BEIJING 1", "OBJECT_ID": "2005-043A", "EPOCH": "2025-12-19T06:21:22.348800", "MEAN_MOTION": 14.63371918, "ECCENTRICITY": 0.00156323, "INCLINATION": 98.2652, "RA_OF_ASC_NODE": 120.7869, "ARG_OF_PERICENTER": 122.0118, "MEAN_ANOMALY": 238.2605, "EPHEMERIS_TYPE": 0, "CLASSIFICATION_TYPE": "U", "NORAD_CAT_ID": 28890, "ELEMENT_SET_NO": 999, "REV_AT_EPOCH": 7433, "BSTAR": 6.0827842e-05, "MEAN_MOTION_DOT": 2.66e-06, "MEAN_MOTION_DDOT": 0}, "tle": {"line1": "1 28890U 05043A   25353.26484200  .00000266  00000+0  60828-4 0  9994", "line2": "2 28890  98.2652 120.7869 0015632 122.0118 238.2605 14.63371918 74332"}}, "geometry": {"type": "Point", "coordinates": [-79.62503374226534, -67.86609793692531]}}, {"type": "Feature", "properties": {"norad_id": 33320, "name": "HUANJING 1A (HJ-1A)", "group": "dmc", "lat": 63.19761847046894, "lon": -33.641683453891744, "alt_km": 603.9650471556724, "timestamp": "2025-12-19T18:58:41.258697+00:00", "meta": {"OBJECT_NAME": "HUANJING 1A (HJ-1A)", "OBJECT_ID": "2008-041A", "EPOCH": "2025-12-19T07:21:30.368736", "MEAN_MOTION": 14.83413315, "ECCENTRICITY": 0.00197251, "INCLINATION": 97.6534, "RA_OF_ASC_NODE": 341.3311, "ARG_OF_PERICENTER": 13.5553, "MEAN_ANOMALY": 346.6187, "EPHEMERIS_TYPE": 0, "CLASSIFICATION_TYPE": "U", "NORAD_CAT_ID": 33320, "ELEMENT_SET_NO": 999, "REV_AT_EPOCH": 93173, "BSTAR": 0.00011708039, "MEAN_MOTION_DOT": 9.13e-06, "MEAN_MOTION_DDOT": 0}, "tle": {"line1": "1 33320U 08041A   25353.30660149  .00000913  00000+0  11708-3 0  9993", "line2": "2 33320  97.6534 341.3311 0019725  13.5553 346.6187 14.83413315931730"}}, "geometry": {"type": "Point", "coordinates": [-33.641683453891744, 63.19761847046894]}}, {"type": "Feature", "properties": {"norad_id": 33321, "name": "HUANJING 1B (HJ-1B)", "group": "dmc", "lat": -82.3473675072947, "lon": 72.81541715620227, "alt_km": 648.9556980972457, "timestamp": "2025-12-19T18:58:41.258711+00:00", "meta": {"OBJECT_NAME": "HUANJING 1B (HJ-1B)", "OBJECT_ID": "2008-041B", "EPOCH": "2025-12-19T06:25:34.560768", "MEAN_MOTION": 14.82837298, "ECCENTRICITY": 0.00380187, "INCLINATION": 97.6394, "RA_OF_ASC_NODE": 344.9738, "ARG_OF_PERICENTER": 55.0491, "MEAN_ANOMALY": 305.4284, "EPHEMERIS_TYPE": 0, "CLASSIFICATION_TYPE": "U", "NORAD_CAT_ID": 33321, "ELEMENT_SET_NO": 999, "REV_AT_EPOCH": 93174, "BSTAR": 0.00012850277, "MEAN_MOTION_DOT": 1.001e-05, "MEAN_MOTION_DDOT": 0}, "tle": {"line1": "1 33321U 08041B   25353.26776112  .00001001  00000+0  12850-3 0  9995", "line2": "2 33321  97.6394 344.9738 0038018  55.0491 305.4284 14.82837298931746"}}, "geometry": {"type": "Point", "coordinates": [72.81541715620227, -82.3473675072947]}}, {"type": "Feature", "properties": {"norad_id": 33446, "name": "YAOGAN-4", "group": "dmc", "lat": 1.0734573116111927, "lon": 103.97032264070697, "alt_km": 628.2856207022396, "timestamp": "2025-12-19T18:58:41.258723+00:00", "meta": {"OBJECT_NAME": "YAOGAN-4", "OBJECT_ID": "2008-061A", "EPOCH": "2025-12-19T05:12:57.035520", "MEAN_MOTION": 14.8270017, "ECCENTRICITY": 0.00131785, "INCLINATION": 97.919, "RA_OF_ASC_NODE": 283.2531, "ARG_OF_PERICENTER": 300.5796, "MEAN_ANOMALY": 59.4117, "EPHEMERIS_TYPE": 0, "CLASSIFICATION_TYPE": "U", "NORAD_CAT_ID": 33446, "ELEMENT_SET_NO": 999, "REV_AT_EPOCH": 91899, "BSTAR": 0.00012404803, "MEAN_MOTION_DOT": 9.48e-06, "MEAN_MOTION_DDOT": 0}, "tle": {"line1": "1 33446U 08061A   25353.21732680  .00000948  00000+0  12405-3 0  9997", "line2": "2 33446  97.9190 283.2531 0013178 300.5796  59.4117 14.82700170918994"}}, "geometry": {"type": "Point", "coordinates": [103.97032264070697, 1.0734573116111927]}}, {"type": "Feature", "properties": {"norad_id": 35681, "name": "DEIMOS-1", "group": "dmc", "lat": 66.15689129028236, "lon": -8.074421104466602, "alt_km": 637.5221211795897, "timestamp": "2025-12-19T18:58:41.258734+00:00", "meta": {"OBJECT_NAME": "DEIMOS-1", "OBJECT_ID": "2009-041A", "EPOCH": "2025-12-19T07:04:21.552960", "MEAN_MOTION": 14.74962922, "ECCENTRICITY": 0.00026177, "INCLINATION": 97.7142, "RA_OF_ASC_NODE": 153.5921, "ARG_OF_PERICENTER": 69.3038, "MEAN_ANOMALY": 290.8452, "EPHEMERIS_TYPE": 0, "CLASSIFICATION_TYPE": "U", "NORAD_CAT_ID": 35681, "ELEMENT_SET_NO": 999, "REV_AT_EPOCH": 88036, "BSTAR": 0.00011016049, "MEAN_MOTION_DOT": 6.93e-06, "MEAN_MOTION_DDOT": 0}, "tle": {"line1": "1 35681U 09041A   25353.29469390  .00000693  00000+0  11016-3 0  9996", "line2": "2 35681  97.7142 153.5921 0002617  69.3038 290.8452 14.74962922880367"}}, "geometry": {"type": "Point", "coordinates": [-8.074421104466602, 66.15689129028236]}}, {"type": "Feature", "properties": {"norad_id": 35683, "name": "UK-DMC 2", "group": "dmc", "lat": 34.77563105602126, "lon": -46.00452447921721, "alt_km": 640.2198124022107, "timestamp": "2025-12-19T18:58:41.258745+00:00", "meta": {"OBJECT_NAME": "UK-DMC 2", "OBJECT_ID": "2009-041C", "EPOCH": "2025-12-19T06:55:57.413280", "MEAN_MOTION": 14.75636354, "ECCENTRICITY": 0.00015023, "INCLINATION": 97.8559, "RA_OF_ASC_NODE": 128.0063, "ARG_OF_PERICENTER": 93.7166, "MEAN_ANOMALY": 266.4215, "EPHEMERIS_TYPE": 0, "CLASSIFICATION_TYPE": "U", "NORAD_CAT_ID": 35683, "ELEMENT_SET_NO": 999, "REV_AT_EPOCH": 88003, "BSTAR": 0.00016297204, "MEAN_MOTION_DOT": 1.063e-05, "MEAN_MOTION_DDOT": 0}, "tle": {"line1": "1 35683U 09041C   25353.28885895  .00001063  00000+0  16297-3 0  9997", "line2": "2 35683  97.8559 128.0063 0001502  93.7166 266.4215 14.75636354880039"}}, "geometry": {"type": "Point", "coordinates": [-46.00452447921721, 34.77563105602126]}}, {"type": "Feature", "properties": {"norad_id": 40715, "name": "DMC3-FM1", "group": "dmc", "lat": 79.2375634423027, "lon": 175.5799184207967, "alt_km": 607.3800719204328, "timestamp": "2025-12-19T18:58:41.258756+00:00", "meta": {"OBJECT_NAME": "DMC3-FM1", "OBJECT_ID": "2015-032A", "EPOCH": "2025-12-19T05:40:29.997984", "MEAN_MOTION": 14.85449153, "ECCENTRICITY": 0.00042684, "INCLINATION": 97.6692, "RA_OF_ASC_NODE": 220.1918, "ARG_OF_PERICENTER": 295.3865, "MEAN_ANOMALY": 64.6908, "EPHEMERIS_TYPE": 0, "CLASSIFICATION_TYPE": "U", "NORAD_CAT_ID": 40715, "ELEMENT_SET_NO": 999, "REV_AT_EPOCH": 56319, "BSTAR": 2.467155e-05, "MEAN_MOTION_DOT": 1.61e-06, "MEAN_MOTION_DDOT": 0}, "tle": {"line1": "1 40715U 15032A   25353.23645831  .00000161  00000+0  24672-4 0  9990", "line2": "2 40715  97.6692 220.1918 0004268 295.3865  64.6908 14.85449153563190"}}, "geometry": {"type": "Point", "coordinates": [175.5799184207967, 79.2375634423027]}}, {"type": "Feature", "properties": {"norad_id": 40716, "name": "DMC3-FM2", "group": "dmc", "lat": -37.44459023146444, "lon": -131.89820219720957, "alt_km": 615.4805924527354, "timestamp": "2025-12-19T18:58:41.258767+00:00", "meta": {"OBJECT_NAME": "DMC3-FM2", "OBJECT_ID": "2015-032B", "EPOCH": "2025-12-19T06:12:53.012160", "MEAN_MOTION": 14.85452149, "ECCENTRICITY": 0.0004832, "INCLINATION": 97.6749, "RA_OF_ASC_NODE": 221.6618, "ARG_OF_PERICENTER": 300.8638, "MEAN_ANOMALY": 59.2101, "EPHEMERIS_TYPE": 0, "CLASSIFICATION_TYPE": "U", "NORAD_CAT_ID": 40716, "ELEMENT_SET_NO": 999, "REV_AT_EPOCH": 56319, "BSTAR": 9.3199308e-05, "MEAN_MOTION_DOT": 7.52e-06, "MEAN_MOTION_DDOT": 0}, "tle": {"line1": "1 40716U 15032B   25353.25894690  .00000752  00000+0  93199-4 0  9998", "line2": "2 40716  97.6749 221.6618 0004832 300.8638  59.2101 14.85452149563198"}}, "geometry": {"type": "Point", "coordinates": [-131.89820219720957, -37.44459023146444]}}, {"type": "Feature", "properties": {"norad_id": 40717, "name": "DMC3-FM3", "group": "dmc", "lat": -26.18776425021317, "lon": 40.00696535783848, "alt_km": 618.1848692957383, "timestamp": "2025-12-19T18:58:41.258778+00:00", "meta": {"OBJECT_NAME": "DMC3-FM3", "OBJECT_ID": "2015-032C", "EPOCH": "2025-12-19T06:44:05.911008", "MEAN_MOTION": 14.85441439, "ECCENTRICITY": 0.00041429, "INCLINATION": 97.6806, "RA_OF_ASC_NODE": 223.3203, "ARG_OF_PERICENTER": 303.2314, "MEAN_ANOMALY": 56.8504, "EPHEMERIS_TYPE": 0, "CLASSIFICATION_TYPE": "U", "NORAD_CAT_ID": 40717, "ELEMENT_SET_NO": 999, "REV_AT_EPOCH": 56320, "BSTAR": 0.00012670108, "MEAN_MOTION_DOT": 1.041e-05, "MEAN_MOTION_DDOT": 0}, "tle": {"line1": "1 40717U 15032C   25353.28062397  .00001041  00000+0  12670-3 0  9999", "line2": "2 40717  97.6806 223.3203 0004142 303.2314  56.8504 14.85441439563206"}}, "geometry": {"type": "Point", "coordinates": [40.00696535783848, -26.18776425021317]}}]}